[{"OBJECT_NAME":"STARLINK-35958","OBJECT_ID":"2025-280B","EPOCH":"2026-03-09T22:33:13.781376","MEAN_MOTION":14.98325387,"ECCENTRICITY":0.00026185,"INCLINATION":70.0023,"RA_OF_ASC_NODE":333.813,"ARG_OF_PERICENTER":271.2816,"MEAN_ANOMALY":88.8043,"EPHEMERIS_TYPE":0,"CLASSIFICATION_TYPE":"U","NORAD_CAT_ID":66822,"ELEMENT_SET_NO":999,"REV_AT_EPOCH":1611,"BSTAR":0.00027043095,"MEAN_MOTION_DOT":3.135e-5,"MEAN_MOTION_DDOT":0},{"OBJECT_NAME":"UNKNOWN","OBJECT_ID":"","EPOCH":"2026-03-09T22:13:37.396992","MEAN_MOTION":14.94079285,"ECCENTRICITY":0.00368591,"INCLINATION":98.4007,"RA_OF_ASC_NODE":57.0532,"ARG_OF_PERICENTER":27.679,"MEAN_ANOMALY":332.6379,"EPHEMERIS_TYPE":0,"CLASSIFICATION_TYPE":"U","NORAD_CAT_ID":270309,"ELEMENT_SET_NO":999,"REV_AT_EPOCH":28085,"BSTAR":0.00073987035,"MEAN_MOTION_DOT":7.947e-5,"MEAN_MOTION_DDOT":0}]
